{"spkid": "50710268", "covariance": {"epoch": "2457188.5", "elements": [{"label": "e", "title": "eccentricity", "value": ".7623323249667758", "units": null, "name": "e", "sigma": 3.07731350042935e-08}, {"label": "q", "title": "perihelion distance", "value": ".6669075507598724", "units": "au", "sigma": 8.1248035979532e-08, "name": "q"}, {"label": "tp", "units": "TDB", "value": "2457155.980265844422", "title": "time of perihelion passage", "name": "tp", "sigma": 2.78760102379256e-05}, {"title": "longitude of the ascending node", "value": "145.9844739652839", "units": "deg", "name": "om", "sigma": 1.53778554651694e-05, "label": "node"}, {"label": "peri", "title": "argument of perihelion", "value": "77.30614198505775", "units": "deg", "sigma": 1.81553663883292e-05, "name": "w"}, {"name": "i", "sigma": 1.64059568768803e-05, "units": "deg", "title": "inclination", "value": "19.04180867596105", "label": "i"}], "data": [["9.469858379924717E-16", "-2.306780491836991E-15", "1.470266930877002E-13", "-8.573410021906309E-15", "-5.704195722554015E-14", "-7.298605415112243E-15"], ["-2.306780491836991E-15", "6.601243350531321E-15", "-5.772576124197418E-13", "6.195445525066097E-14", "1.058208997184335E-13", "3.076722042347768E-14"], ["1.470266930877002E-13", "-5.772576124197418E-13", "7.770719467849339E-10", "-1.58541869590659E-10", "3.008258518361388E-10", "-4.473699644265807E-11"], ["-8.573410021906309E-15", "6.195445525066097E-14", "-1.58541869590659E-10", "2.364784387076417E-10", "-2.506467623516574E-10", "-5.03526635019955E-11"], ["-5.704195722554015E-14", "1.058208997184335E-13", "3.008258518361388E-10", "-2.506467623516574E-10", "3.296173286944736E-10", "4.015111417622522E-11"], ["-7.298605415112243E-15", "3.076722042347768E-14", "-4.473699644265807E-11", "-5.03526635019955E-11", "4.015111417622522E-11", "2.691554210460575E-10"]], "labels": ["e", "q", "tp", "node", "peri", "i"]}, "elements": [{"sigma": "3.1297E-8", "name": "e", "units": null, "value": ".7636732175616527", "title": "eccentricity", "label": "e"}, {"label": "a", "units": "au", "title": "semi-major axis", "value": "2.800081783837438", "name": "a", "sigma": "1.3182E-7"}, {"title": "perihelion distance", "value": ".6617343185385295", "units": "au", "sigma": "8.1667E-8", "name": "q", "label": "q"}, {"label": "i", "name": "i", "sigma": "1.6413E-5", "value": "19.05311250909723", "title": "inclination; angle with respect to x-y ecliptic plane", "units": "deg"}, {"name": "om", "sigma": "1.5372E-5", "units": "deg", "value": "145.7062702557241", "title": "longitude of the ascending node", "label": "node"}, {"label": "peri", "units": "deg", "title": "argument of perihelion", "value": "77.57256270154403", "sigma": "1.8079E-5", "name": "w"}, {"label": "M", "title": "mean anomaly", "value": "129.0952311224251", "units": "deg", "sigma": "6.2227E-5", "name": "ma"}, {"units": "TDB", "title": "time of perihelion passage", "value": "2460586.791413134117", "sigma": ".00025271", "name": "tp", "label": "tp"}, {"label": "period", "name": "per", "sigma": ".00012085", "value": "1711.411717929363", "title": "sidereal orbital period", "units": "d"}, {"label": "n", "name": "n", "sigma": "1.4854E-8", "units": "deg/d", "value": ".2103526557803191", "title": "mean motion"}, {"value": "4.938429249136346", "title": "aphelion distance", "units": "au", "sigma": "2.3249E-7", "name": "ad", "label": "Q"}], "epoch": "2461200.5"}